[{"OBJECT_NAME":"STARLINK-5774","OBJECT_ID":"2023-042AV","EPOCH":"2026-03-09T07:30:09.149760","MEAN_MOTION":15.02531981,"ECCENTRICITY":0.00013427,"INCLINATION":43.0039,"RA_OF_ASC_NODE":45.1425,"ARG_OF_PERICENTER":273.0375,"MEAN_ANOMALY":87.0313,"EPHEMERIS_TYPE":0,"CLASSIFICATION_TYPE":"U","NORAD_CAT_ID":56029,"ELEMENT_SET_NO":999,"REV_AT_EPOCH":16300,"BSTAR":1.0528192e-5,"MEAN_MOTION_DOT":-6.1e-7,"MEAN_MOTION_DDOT":0},{"OBJECT_NAME":"RAAF M1","OBJECT_ID":"2018-099X","EPOCH":"2026-03-09T15:51:10.230048","MEAN_MOTION":15.07065376,"ECCENTRICITY":0.00134971,"INCLINATION":97.4534,"RA_OF_ASC_NODE":114.8325,"ARG_OF_PERICENTER":21.6261,"MEAN_ANOMALY":338.5534,"EPHEMERIS_TYPE":0,"CLASSIFICATION_TYPE":"U","NORAD_CAT_ID":43779,"ELEMENT_SET_NO":999,"REV_AT_EPOCH":39714,"BSTAR":0.00026511092,"MEAN_MOTION_DOT":3.923e-5,"MEAN_MOTION_DDOT":0}]
